NORAD_CAT_ID,OBJECT_NAME,OBJECT_TYPE,EPOCH,MEAN_MOTION,ECCENTRICITY,INCLINATION,RA_OF_ASC_NODE,ARG_OF_PERICENTER,MEAN_ANOMALY,BSTAR,MEAN_MOTION_DOT,MEAN_MOTION_DDOT,TLE_LINE0,TLE_LINE1,TLE_LINE2,SEMIMAJOR_AXIS,PERIOD,APOGEE,PERIGEE,DECAYED
54164.0,STARLINK-5278,PAYLOAD,2023-04-07 13:19:47,15.08848959,0.000117,53.2158,114.8786,90.0637,270.049,0.00028777,4.296e-05,0.0,0 STARLINK-5278,1 54164U 22141H   23097.55541478  .00004296  00000-0  28777-3 0  9995,2 54164  53.2158 114.8786 0001170  90.0637 270.0490 15.08848959 24752,6917.853,95.437,540.527,538.909,0.0
54164.0,STARLINK-5278,PAYLOAD,2023-04-08 09:59:48,15.08842518,0.0001368,53.2169,111.0104,92.8401,267.2748,0.00010758,1.425e-05,0.0,0 STARLINK-5278,1 54164U 22141H   23098.41653796  .00001425  00000-0  10758-3 0  9999,2 54164  53.2169 111.0104 0001368  92.8401 267.2748 15.08842518 24888,6917.873,95.437,540.684,538.791,0.0
54164.0,STARLINK-5278,PAYLOAD,2023-04-09 00:18:17,15.08836559,0.0001283,53.2156,108.3368,90.3758,269.7381,3.2381e-05,2.27e-06,0.0,0 STARLINK-5278,1 54164U 22141H   23099.01270147  .00000227  00000-0  32381-4 0  9997,2 54164  53.2156 108.3368 0001283  90.3758 269.7381 15.08836559 24977,6917.891,95.438,540.643,538.868,0.0
54164.0,STARLINK-5278,PAYLOAD,2023-04-09 08:15:13,15.08838129,0.0001311,53.216,106.8496,92.2337,267.8805,7.0609e-06,-1.76e-06,0.0,0 STARLINK-5278,1 54164U 22141H   23099.34390171 -.00000176  00000-0  70609-5 0  9993,2 54164  53.2160 106.8496 0001311  92.2337 267.8805 15.08838129 25025,6917.886,95.438,540.658,538.844,0.0
54164.0,STARLINK-5278,PAYLOAD,2023-04-09 17:47:31,15.08841821,0.0001254,53.2165,105.0657,84.4442,275.6693,6.1067e-05,6.84e-06,0.0,0 STARLINK-5278,1 54164U 22141H   23099.74134012  .00000684  00000-0  61067-4 0  9997,2 54164  53.2165 105.0657 0001254  84.4442 275.6693 15.08841821 25087,6917.875,95.437,540.607,538.872,0.0
54164.0,STARLINK-5278,PAYLOAD,2023-04-10 11:16:45,15.08853285,0.0001258,53.2163,101.7946,99.9444,260.169,0.00026698,3.965e-05,0.0,0 STARLINK-5278,1 54164U 22141H   23100.46997507  .00003965  00000-0  26698-3 0  9990,2 54164  53.2163 101.7946 0001258  99.9444 260.1690 15.08853285 25191,6917.84,95.437,540.575,538.835,0.0
54164.0,STARLINK-5278,PAYLOAD,2023-04-10 17:38:18,15.08845692,0.0001165,53.2167,100.6062,81.0759,279.0365,0.00013271,1.825e-05,0.0,0 STARLINK-5278,1 54164U 22141H   23100.73493813  .00001825  00000-0  13271-3 0  9997,2 54164  53.2167 100.6062 0001165  81.0759 279.0365 15.08845692 25236,6917.863,95.437,540.534,538.922,0.0
54164.0,STARLINK-5278,PAYLOAD,2023-04-11 11:07:32,15.08852741,0.0001286,53.2167,97.3346,88.0411,272.0728,0.00029404,4.396e-05,0.0,0 STARLINK-5278,1 54164U 22141H   23101.46357515  .00004396  00000-0  29404-3 0  9997,2 54164  53.2167  97.3346 0001286  88.0411 272.0728 15.08852741 25340,6917.841,95.437,540.596,538.817,0.0
54164.0,STARLINK-5278,PAYLOAD,2023-04-12 04:36:47,15.08839465,0.0001576,53.2169,94.0636,115.2873,244.8282,1.4618e-05,-5.5e-07,0.0,0 STARLINK-5278,1 54164U 22141H   23102.19221889 -.00000055  00000-0  14618-4 0  9993,2 54164  53.2169  94.0636 0001576 115.2873 244.8282 15.08839465 25457,6917.882,95.438,540.837,538.657,0.0
54164.0,STARLINK-5278,PAYLOAD,2023-04-12 07:47:34,15.08839543,0.0001277,53.2169,93.4683,97.9729,262.1408,7.2055e-05,8.59e-06,0.0,0 STARLINK-5278,1 54164U 22141H   23102.32470011  .00000859  00000-0  72055-4 0  9991,2 54164  53.2169  93.4683 0001277  97.9729 262.1408 15.08839543 25478,6917.882,95.438,540.63,538.863,0.0
54164.0,STARLINK-5278,PAYLOAD,2023-04-13 09:13:44,15.08843391,0.0001365,53.2168,88.7121,105.6218,254.4925,0.00028042,4.178e-05,0.0,0 STARLINK-5278,1 54164U 22141H   23103.38454259  .00004178  00000-0  28042-3 0  9998,2 54164  53.2168  88.7121 0001365 105.6218 254.4925 15.08843391 25631,6917.87,95.437,540.679,538.791,0.0
54164.0,STARLINK-5278,PAYLOAD,2023-04-13 15:35:17,15.08840829,0.0001285,53.2164,87.522,100.6686,259.4451,0.00014909,2.086e-05,0.0,0 STARLINK-5278,1 54164U 22141H   23103.64950354  .00002086  00000-0  14909-3 0  9997,2 54164  53.2164  87.5220 0001285 100.6686 259.4451 15.08840829 25675,6917.878,95.438,540.632,538.854,0.0
54164.0,STARLINK-5278,PAYLOAD,2023-04-14 09:04:31,15.08843072,0.0001272,53.2166,84.2512,103.7692,256.3442,0.00018109,2.596e-05,0.0,0 STARLINK-5278,1 54164U 22141H   23104.37814373  .00002596  00000-0  18109-3 0  9990,2 54164  53.2166  84.2512 0001272 103.7692 256.3442 15.08843072 25783,6917.871,95.437,540.616,538.856,0.0
54164.0,STARLINK-5278,PAYLOAD,2023-04-15 04:09:09,15.08840065,0.0001265,53.217,80.6833,101.2778,258.8356,3.8203e-05,3.2e-06,0.0,0 STARLINK-5278,1 54164U 22141H   23105.17302629  .00000320  00000-0  38203-4 0  9996,2 54164  53.2170  80.6833 0001265 101.2778 258.8356 15.08840065 25908,6917.88,95.438,540.62,538.87,0.0
54164.0,STARLINK-5278,PAYLOAD,2023-04-15 07:19:55,15.08843485,0.0001325,53.2173,80.0883,100.714,259.4002,7.967e-05,9.8e-06,0.0,0 STARLINK-5278,1 54164U 22141H   23105.30550440  .00000980  00000-0  79670-4 0  9992,2 54164  53.2173  80.0883 0001325 100.7140 259.4002 15.08843485 25920,6917.87,95.437,540.651,538.818,0.0
54164.0,STARLINK-5278,PAYLOAD,2023-04-15 21:38:24,15.08841338,0.0001415,53.2166,77.4127,89.1343,270.9811,0.00012867,1.761e-05,0.0,0 STARLINK-5278,1 54164U 22141H   23105.90166683  .00001761  00000-0  12867-3 0  9992,2 54164  53.2166  77.4127 0001415  89.1343 270.9811 15.08841338 26010,6917.876,95.437,540.72,538.762,0.0
54164.0,STARLINK-5278,PAYLOAD,2023-04-16 07:10:42,15.08843525,0.0001195,53.2164,75.6265,93.4776,266.6353,7.2207e-05,8.62e-06,0.0,0 STARLINK-5278,1 54164U 22141H   23106.29910535  .00000862  00000-0  72207-4 0  9994,2 54164  53.2164  75.6265 0001195  93.4776 266.6353 15.08843525 26073,6917.87,95.437,540.561,538.908,0.0
54164.0,STARLINK-5278,PAYLOAD,2023-04-17 07:01:29,15.08844255,0.0001284,53.217,71.166,101.4353,258.6783,0.00012208,1.656e-05,0.0,0 STARLINK-5278,1 54164U 22141H   23107.29270804  .00001656  00000-0  12208-3 0  9999,2 54164  53.2170  71.1660 0001284 101.4353 258.6783 15.08844255 26226,6917.867,95.437,540.621,538.844,0.0
54164.0,STARLINK-5278,PAYLOAD,2023-04-18 06:52:16,15.08846271,0.0001431,53.2176,66.7038,107.0775,253.0374,0.00014001,1.941e-05,0.0,0 STARLINK-5278,1 54164U 22141H   23108.28630706  .00001941  00000-0  14001-3 0  9990,2 54164  53.2176  66.7038 0001431 107.0775 253.0374 15.08846271 26376,6917.861,95.437,540.716,538.736,0.0
54164.0,STARLINK-5278,PAYLOAD,2023-04-19 00:21:31,15.08839827,0.000149,53.2169,63.4325,104.5031,255.6126,6.128e-05,6.87e-06,0.0,0 STARLINK-5278,1 54164U 22141H   23109.01495174  .00000687  00000-0  61280-4 0  9998,2 54164  53.2169  63.4325 0001490 104.5031 255.6126 15.08839827 26487,6917.881,95.438,540.777,538.715,0.0
54164.0,STARLINK-5278,PAYLOAD,2023-04-19 06:43:04,15.08847349,0.0001424,53.2188,62.245,97.6801,262.4353,8.5358e-05,1.071e-05,0.0,0 STARLINK-5278,1 54164U 22141H   23109.27990767  .00001071  00000-0  85358-4 0  9994,2 54164  53.2188  62.2450 0001424  97.6801 262.4353 15.08847349 26529,6917.858,95.437,540.708,538.738,0.0
54164.0,STARLINK-5278,PAYLOAD,2023-04-20 06:33:50,15.08857189,0.0001196,53.218,57.7859,98.284,261.8287,0.0001989,2.88e-05,0.0,0 STARLINK-5278,1 54164U 22141H   23110.27350020  .00002880  00000-0  19890-3 0  9994,2 54164  53.2180  57.7859 0001196  98.2840 261.8287 15.08857189 26677,6917.828,95.436,540.52,538.865,0.0
54164.0,STARLINK-5278,PAYLOAD,2023-04-21 03:13:52,15.08830739,0.0001617,53.2185,53.9177,98.8068,261.3107,-8.4502e-05,-1.632e-05,0.0,0 STARLINK-5278,1 54164U 22141H   23111.13463798 -.00001632  00000-0 -84502-4 0  9996,2 54164  53.2185  53.9177 0001617  98.8068 261.3107 15.08830739 26802,6917.909,95.438,540.892,538.655,0.0
54164.0,STARLINK-5278,PAYLOAD,2023-04-21 12:46:11,15.08837243,0.0001229,53.2189,52.1375,92.5568,267.5565,7.6885e-06,-1.65e-06,0.0,0 STARLINK-5278,1 54164U 22141H   23111.53208000 -.00000165  00000-0  76885-5 0  9998,2 54164  53.2189  52.1375 0001229  92.5568 267.5565 15.08837243 26861,6917.889,95.438,540.604,538.904,0.0
54164.0,STARLINK-5278,PAYLOAD,2023-04-22 03:04:39,15.08846842,0.0001047,53.2183,49.4606,106.9458,253.1649,3.1206e-05,2.09e-06,0.0,0 STARLINK-5278,1 54164U 22141H   23112.12823472  .00000209  00000-0  31206-4 0  9995,2 54164  53.2183  49.4606 0001047 106.9458 253.1649 15.08846842 26956,6917.859,95.437,540.449,539.0,0.0
54164.0,STARLINK-5278,PAYLOAD,2023-04-22 04:40:02,15.08845086,0.0001086,53.2182,49.1627,104.9191,255.1922,5.3989e-05,5.72e-06,0.0,0 STARLINK-5278,1 54164U 22141H   23112.19447450  .00000572  00000-0  53989-4 0  9995,2 54164  53.2182  49.1627 0001086 104.9191 255.1922 15.08845086 26966,6917.865,95.437,540.481,538.979,0.0
54164.0,STARLINK-5278,PAYLOAD,2023-04-23 04:30:49,15.08840758,0.0001068,53.2177,44.702,111.3864,248.7242,9.8223e-05,1.276e-05,0.0,0 STARLINK-5278,1 54164U 22141H   23113.18807720  .00001276  00000-0  98223-4 0  9997,2 54164  53.2177  44.7020 0001068 111.3864 248.7242 15.08840758 27119,6917.878,95.438,540.482,539.004,0.0
54164.0,STARLINK-5278,PAYLOAD,2023-04-24 01:10:50,15.0885584,0.0001074,53.2178,40.8365,109.1316,250.9792,0.00015647,2.204e-05,0.0,0 STARLINK-5278,1 54164U 22141H   23114.04918993  .00002204  00000-0  15647-3 0  9998,2 54164  53.2178  40.8365 0001074 109.1316 250.9792 15.08855840 27240,6917.832,95.437,540.44,538.954,0.0
54164.0,STARLINK-5278,PAYLOAD,2023-04-25 01:01:35,15.08878174,0.0001208,53.2184,36.3737,102.0088,258.104,0.00054659,8.431e-05,0.0,0 STARLINK-5278,1 54164U 22141H   23115.04276919  .00008431  00000-0  54659-3 0  9998,2 54164  53.2184  36.3737 0001208 102.0088 258.1040 15.08878174 27394,6917.764,95.435,540.464,538.793,0.0
54164.0,STARLINK-5278,PAYLOAD,2023-04-26 05:38:34,15.08800662,0.0001036,53.2179,31.0284,73.5182,286.5924,-0.0008524,-0.00013813,0.0,0 STARLINK-5278,1 54164U 22141H   23116.23512624 -.00013813  00000-0 -85240-3 0  9998,2 54164  53.2179  31.0284 0001036  73.5182 286.5924 15.08800662 27576,6918.001,95.44,540.582,539.149,0.0
